GLOBALSTAR M075 [+]     
1 37192U 10054E   23321.82307411 -.00000112  00000+0 -46015-4 0  9994
2 37192  51.9922 139.4866 0001110  93.5809 279.8270 12.62267574603091
GLOBALSTAR M073 [+]     
1 37193U 10054F   23322.55487272 -.00000096  00000+0  45550-4 0  9993
2 37193  52.0073  50.6327 0000650 121.6825 340.6344 12.62269245605061
GLOBALSTAR M083 [+]     
1 37739U 11033A   23321.87027203 -.00000092  00000+0  65521-4 0  9991
2 37739  51.9881   2.2383 0000497  74.5063  96.4058 12.62262906573942
GLOBALSTAR M088 [+]     
1 37740U 11033B   23322.06174446 -.00000082  00000+0  12184-3 0  9992
2 37740  51.9739 267.6327 0000941  59.3261  21.6340 12.62267555569805
GLOBALSTAR M091 [+]     
1 37741U 11033C   23321.54083748 -.00000073  00000+0  17156-3 0  9993
2 37741  51.9996 231.7425 0001199  65.5104 106.4228 12.62268592570231
GLOBALSTAR M085 [+]     
1 37742U 11033D   23322.39889250 -.00000101  00000+0  14463-4 0  9991
2 37742  51.9850 180.6797 0001268  78.1765  95.2169 12.62265348571343
GLOBALSTAR M081 [+]     
1 37743U 11033E   23322.02368936 -.00000084  00000+0  11045-3 0  9997
2 37743  51.9941 184.2532 0001368  85.1016  62.4959 12.62267031571333
GLOBALSTAR M089 [+]     
1 37744U 11033F   23321.91147615 -.00000110  00000+0 -33499-4 0  9993
2 37744  51.9904 138.9294 0001003 110.1690  67.3613 12.62269697571787
